0 FENGYUN 1C DEB
1 31028U 99025BDW 13281.79595200  .00000169  00000-0  16103-3 0  4525
2 31028 098.5874 120.4953 0168641 222.5215 136.2819 13.86425260332685
0 FENGYUN 1C DEB
1 31028U 99025BDW 13284.32184819  .00000175  00000-0  16558-3 0  4539
2 31028 098.5876 122.8153 0168652 215.5078 143.4773 13.86426494333035
0 FENGYUN 1C DEB
1 31028U 99025BDW 13286.77557812  .00000176  00000-0  16636-3 0  4546
2 31028 098.5876 125.0687 0168638 208.8046 150.3724 13.86427584333377
0 FENGYUN 1C DEB
1 31028U 99025BDW 13291.32219460  .00000202  00000-0  18565-3 0  4551
2 31028 098.5881 129.2455 0169367 196.1757 163.4086 13.86430382334007
0 FENGYUN 1C DEB
1 31028U 99025BDW 13293.34290965  .00000214  00000-0  19467-3 0  4560
2 31028 098.5874 131.1024 0169285 190.6316 169.1261 13.86431699334282
